     3.05           N: GNSS NAV DATA    G: GPS              RINEX VERSION / TYPE
BNC 2.13.0          BKG Frankfurt       20230512 011006 UTC PGM / RUN BY / DATE
Concatenated RINEX files (38)                               COMMENT
                                                            END OF HEADER
G06 2023 05 12 02 00 00 5.881045944990e-04-1.136868377220e-13 0.000000000000e+00
     5.900000000000e+01 5.268750000000e+01 4.008738408620e-09-5.481988163950e-01
     2.454966306690e-06 2.790674683640e-03 4.248693585400e-06 5.153665025710e+03
     4.392000000000e+05-9.313225746150e-09 2.634786761920e+00-6.332993507390e-08
     9.892337471790e-01 3.090000000000e+02-7.445180221750e-01-8.082479524860e-09
     2.989410235220e-10 1.000000000000e+00 2.261000000000e+03 0.000000000000e+00
     2.000000000000e+00 0.000000000000e+00 3.725290298460e-09 5.900000000000e+01
     4.320180000000e+05 4.000000000000e+00                                      
G24 2023 05 12 02 00 00-1.853923313320e-04-1.398348103980e-11 0.000000000000e+00
     8.700000000000e+01 1.018750000000e+01 5.370580849110e-09-4.274442316480e-01
     5.997717380520e-07 1.384665397930e-02 8.244067430500e-06 5.153649534230e+03
     4.392000000000e+05-1.303851604460e-08-6.038406773250e-01 1.750886440280e-07
     9.339884189720e-01 2.047187500000e+02 8.925929151180e-01-8.562142361880e-09
     9.000374901740e-11 1.000000000000e+00 2.261000000000e+03 0.000000000000e+00
     2.000000000000e+00 0.000000000000e+00 2.793967723850e-09 8.700000000000e+01
     4.320180000000e+05 4.000000000000e+00                                      
G17 2023 05 12 02 00 00 7.144520059230e-04 1.477928890380e-12 0.000000000000e+00
     9.100000000000e+01 7.543750000000e+01 3.961950745440e-09 1.418352385120e+00
     3.868713974950e-06 1.350063481370e-02 9.052455425260e-06 5.153764307020e+03
     4.392000000000e+05 6.146728992460e-08 1.640248852690e+00-3.967434167860e-07
     9.742341291960e-01 2.080000000000e+02-1.408420720590e+00-7.827111744910e-09
    -3.928735076160e-11 1.000000000000e+00 2.261000000000e+03 0.000000000000e+00
     2.800000000000e+00 0.000000000000e+00-1.117587089540e-08 9.100000000000e+01
     4.320180000000e+05 4.000000000000e+00                                      
G30 2023 05 12 02 00 00-5.176938138900e-04 2.160049916710e-12 0.000000000000e+00
     6.700000000000e+01 1.178125000000e+01 5.160214943670e-09-1.476456865290e+00
     5.029141902920e-07 6.469445768740e-03 7.884576916690e-06 5.153591585160e+03
     4.392000000000e+05 1.136213541030e-07-5.071006096790e-01-1.210719347000e-07
     9.356032640200e-01 2.130937500000e+02-2.592732324660e+00-8.159625595440e-09
     1.664355041350e-10 1.000000000000e+00 2.261000000000e+03 0.000000000000e+00
     2.000000000000e+00 0.000000000000e+00 3.725290298460e-09 6.700000000000e+01
     4.320180000000e+05 4.000000000000e+00                                      
G15 2023 05 12 02 00 00 3.871787339450e-05 3.410605131650e-12 0.000000000000e+00
     8.200000000000e+01-7.681250000000e+01 5.375938215120e-09 5.158096184780e-01
    -3.695487976070e-06 1.484969770540e-02 8.618459105490e-06 5.153718807220e+03
     4.392000000000e+05-1.620501279830e-07-1.703447354050e+00 6.891787052150e-08
     9.320021302470e-01 2.030937500000e+02 1.194964639350e+00-8.607858551860e-09
    -3.678724662220e-11 1.000000000000e+00 2.261000000000e+03 0.000000000000e+00
     2.000000000000e+00 0.000000000000e+00-1.071020960810e-08 8.200000000000e+01
     4.320720000000e+05 4.000000000000e+00                                      
G12 2023 05 12 02 00 00-3.749183379110e-04-4.661160346590e-12 0.000000000000e+00
     4.500000000000e+01 2.503125000000e+01 4.413398121460e-09-2.117702415150e+00
     1.333653926850e-06 8.843432646240e-03 7.236376404760e-06 5.153604509350e+03
     4.392000000000e+05 1.676380634310e-07 6.008506512470e-01-4.097819328310e-08
     9.658270110970e-01 2.423125000000e+02 1.369363602050e+00-7.816397012880e-09
    -3.378712165490e-10 1.000000000000e+00 2.261000000000e+03 0.000000000000e+00
     2.000000000000e+00 0.000000000000e+00-1.257285475730e-08 4.500000000000e+01
     4.342980000000e+05 4.000000000000e+00                                      
G07 2023 05 12 02 00 00 1.804321072996e-04-9.208633855451e-12 0.000000000000e+00
     2.200000000000e+01 1.628125000000e+01 4.858416658269e-09-1.355235845207e+00
     8.493661880493e-07 1.725726516452e-02 7.841736078262e-06 5.153742206573e+03
     4.392000000000e+05 4.749745130539e-07-5.134437741941e-01 1.545995473862e-07
     9.504723502114e-01 2.203125000000e+02-2.198630502014e+00-7.995690195448e-09
     9.643258823294e-11 1.000000000000e+00 2.261000000000e+03 0.000000000000e+00
     2.000000000000e+00 0.000000000000e+00-1.117587000000e-08 2.200000000000e+01
     4.320000000000e+05 4.000000000000e+00                                      
G08 2023 05 12 02 00 00-1.219804398715e-04-1.818989403546e-12 0.000000000000e+00
     4.700000000000e+01 6.946875000000e+01 4.360181619066e-09 1.467784032994e+00
     3.606081008911e-06 8.460246375762e-03 8.162111043930e-06 5.153696638107e+03
     4.392000000000e+05-2.235174179077e-08 1.551405935747e+00 7.636845111847e-08
     9.586874295910e-01 2.213750000000e+02 2.633682991697e-01-7.999618930524e-09
    -2.410814705824e-10 1.000000000000e+00 2.261000000000e+03 0.000000000000e+00
     2.000000000000e+00 0.000000000000e+00 5.122274000000e-09 4.700000000000e+01
     4.320300000000e+05 4.000000000000e+00                                      
G09 2023 05 12 02 00 00-1.608384773135e-04 8.299139153678e-12 0.000000000000e+00
     6.400000000000e+01-8.184375000000e+01 4.570190366773e-09 1.875990553965e+00
    -4.284083843231e-06 2.343858242966e-03 1.002289354801e-05 5.153622575760e+03
     4.392000000000e+05-1.676380634308e-08-1.585437983353e+00-3.539025783539e-08
     9.556569201809e-01 1.778437500000e+02 1.959523912139e+00-7.955688529218e-09
     7.500312418118e-11 1.000000000000e+00 2.261000000000e+03 0.000000000000e+00
     2.000000000000e+00 0.000000000000e+00 9.313226000000e-10 6.400000000000e+01
     4.330200000000e+05 4.000000000000e+00                                      
G18 2023 05 12 02 00 00-2.624941989779e-04-1.591615728103e-11 0.000000000000e+00
     4.600000000000e+01 3.915625000000e+01 4.251605667870e-09-5.571435466479e-01
     2.086162567139e-06 3.165127825923e-03 4.421919584274e-06 5.153678768158e+03
     4.392000000000e+05 9.313225746155e-09 2.644321721105e+00 1.862645149231e-08
     9.739030796124e-01 2.980937500000e+02 3.126057980634e+00-8.137481815924e-09
     2.639395655709e-10 1.000000000000e+00 2.261000000000e+03 0.000000000000e+00
     2.000000000000e+00 0.000000000000e+00-8.381903000000e-09 5.580000000000e+02
     4.321200000000e+05 4.000000000000e+00                                      
G27 2023 05 12 02 00 00 3.942614421248e-05-8.071765478235e-12 0.000000000000e+00
     8.500000000000e+01 6.400000000000e+01 4.168387915802e-09 1.492428996104e+00
     3.287568688393e-06 1.157323201187e-02 8.458271622658e-06 5.153670232773e+03
     4.392000000000e+05-1.583248376846e-07 1.574630970089e+00 7.450580596924e-08
     9.675665625968e-01 2.205312500000e+02 7.338111939302e-01-8.004619138803e-09
    -1.942938074027e-10 1.000000000000e+00 2.261000000000e+03 0.000000000000e+00
     2.000000000000e+00 0.000000000000e+00 1.862645000000e-09 8.500000000000e+01
     4.320000000000e+05 4.000000000000e+00                                      
G25 2023 05 12 02 00 00 4.421700723470e-04 2.728484105320e-12 0.000000000000e+00
     5.100000000000e+01 2.103125000000e+01 4.662694219930e-09-2.269777482030e+00
     1.113861799240e-06 1.111906371080e-02 6.925314664840e-06 5.153732746120e+03
     4.392000000000e+05 6.705522537230e-08 5.187319041350e-01-8.940696716310e-08
     9.535465701510e-01 2.423437500000e+02 1.049820787630e+00-7.899614764950e-09
    -2.242950570750e-10 1.000000000000e+00 2.261000000000e+03 0.000000000000e+00
     2.000000000000e+00 0.000000000000e+00 5.587935447690e-09 5.100000000000e+01
     4.320180000000e+05 4.000000000000e+00                                      
G29 2023 05 12 02 00 00-5.990802310410e-04-1.364242052660e-12 0.000000000000e+00
     2.600000000000e+01 5.493750000000e+01 3.935878230840e-09 1.587495475230e+00
     2.929940819740e-06 2.500483300540e-03 8.465722203250e-06 5.153773679730e+03
     4.392000000000e+05 5.774199962620e-08 1.654302619520e+00 1.005828380580e-07
     9.764814332280e-01 2.247812500000e+02 2.377638745080e+00-7.755680198070e-09
    -5.607376426880e-11 1.000000000000e+00 2.261000000000e+03 0.000000000000e+00
     2.000000000000e+00 0.000000000000e+00-1.024454832080e-08 2.600000000000e+01
     4.320420000000e+05 4.000000000000e+00                                      
G04 2023 05 12 02 00 00 3.916351124644e-05 9.663381206337e-12 0.000000000000e+00
     1.860000000000e+02-6.600000000000e+01 4.442327897931e-09 9.876056334645e-01
    -3.295019268990e-06 2.381054335274e-03 1.023150980473e-05 5.153679792404e+03
     4.392000000000e+05 0.000000000000e+00-1.528849852882e+00-1.117587089539e-08
     9.623678286543e-01 1.784062500000e+02-2.972206050529e+00-7.945330954926e-09
     8.464638300447e-11 1.000000000000e+00 2.261000000000e+03 0.000000000000e+00
     2.000000000000e+00 0.000000000000e+00-4.656612873077e-09 6.980000000000e+02
     4.320180000000e+05 4.000000000000e+00                                      
